[{"OBJECT_NAME":"LEMUR-2-ARIANNA","OBJECT_ID":"2025-009CU","EPOCH":"2026-03-02T19:21:54.821664","MEAN_MOTION":15.00727041,"ECCENTRICITY":0.0004359,"INCLINATION":97.7031,"RA_OF_ASC_NODE":144.1734,"ARG_OF_PERICENTER":159.9777,"MEAN_ANOMALY":200.1619,"EPHEMERIS_TYPE":0,"CLASSIFICATION_TYPE":"U","NORAD_CAT_ID":62699,"ELEMENT_SET_NO":999,"REV_AT_EPOCH":6159,"BSTAR":0.00074349,"MEAN_MOTION_DOT":9.372e-5,"MEAN_MOTION_DDOT":0},{"OBJECT_NAME":"LEMUR-2-ALISIA","OBJECT_ID":"2025-009DB","EPOCH":"2026-03-02T17:43:11.108928","MEAN_MOTION":15.00991746,"ECCENTRICITY":0.0006256,"INCLINATION":97.7075,"RA_OF_ASC_NODE":144.7546,"ARG_OF_PERICENTER":174.9664,"MEAN_ANOMALY":185.1624,"EPHEMERIS_TYPE":0,"CLASSIFICATION_TYPE":"U","NORAD_CAT_ID":62706,"ELEMENT_SET_NO":999,"REV_AT_EPOCH":8418,"BSTAR":0.0007652,"MEAN_MOTION_DOT":9.717e-5,"MEAN_MOTION_DDOT":0},{"OBJECT_NAME":"LEMUR-2-ROUNDTRIPPER","OBJECT_ID":"2025-009DG","EPOCH":"2026-03-02T18:23:31.622208","MEAN_MOTION":15.01906856,"ECCENTRICITY":0.0004572,"INCLINATION":97.731,"RA_OF_ASC_NODE":144.7342,"ARG_OF_PERICENTER":145.0716,"MEAN_ANOMALY":215.0809,"EPHEMERIS_TYPE":0,"CLASSIFICATION_TYPE":"U","NORAD_CAT_ID":62711,"ELEMENT_SET_NO":999,"REV_AT_EPOCH":6164,"BSTAR":0.00082226,"MEAN_MOTION_DOT":0.000107,"MEAN_MOTION_DDOT":0},{"OBJECT_NAME":"LEMUR-2-MYNAMEISJEFF","OBJECT_ID":"2025-009DH","EPOCH":"2026-03-02T18:21:23.369184","MEAN_MOTION":15.01894881,"ECCENTRICITY":0.0003691,"INCLINATION":97.736,"RA_OF_ASC_NODE":145.0505,"ARG_OF_PERICENTER":173.5484,"MEAN_ANOMALY":186.5789,"EPHEMERIS_TYPE":0,"CLASSIFICATION_TYPE":"U","NORAD_CAT_ID":62712,"ELEMENT_SET_NO":999,"REV_AT_EPOCH":6164,"BSTAR":0.00081422,"MEAN_MOTION_DOT":0.00010591,"MEAN_MOTION_DDOT":0},{"OBJECT_NAME":"LEMUR-2-LEIA-PHILIP","OBJECT_ID":"2025-052AN","EPOCH":"2026-03-02T15:52:47.484480","MEAN_MOTION":14.96526391,"ECCENTRICITY":0.0002547,"INCLINATION":97.6979,"RA_OF_ASC_NODE":315.3727,"ARG_OF_PERICENTER":198.2817,"MEAN_ANOMALY":161.8313,"EPHEMERIS_TYPE":0,"CLASSIFICATION_TYPE":"U","NORAD_CAT_ID":63246,"ELEMENT_SET_NO":999,"REV_AT_EPOCH":5273,"BSTAR":0.00066528,"MEAN_MOTION_DOT":7.51e-5,"MEAN_MOTION_DDOT":0},{"OBJECT_NAME":"LEMUR-2-LIA-MARTIN","OBJECT_ID":"2025-052AQ","EPOCH":"2026-03-02T16:24:44.784288","MEAN_MOTION":14.96697324,"ECCENTRICITY":0.0002899,"INCLINATION":97.7024,"RA_OF_ASC_NODE":315.7505,"ARG_OF_PERICENTER":161.1851,"MEAN_ANOMALY":198.9478,"EPHEMERIS_TYPE":0,"CLASSIFICATION_TYPE":"U","NORAD_CAT_ID":63248,"ELEMENT_SET_NO":999,"REV_AT_EPOCH":5274,"BSTAR":0.00056163,"MEAN_MOTION_DOT":6.358e-5,"MEAN_MOTION_DDOT":0},{"OBJECT_NAME":"LEMUR-2-DELOITTE-1","OBJECT_ID":"2025-052BB","EPOCH":"2026-03-02T15:39:45.027936","MEAN_MOTION":14.96700379,"ECCENTRICITY":0.0003219,"INCLINATION":97.7056,"RA_OF_ASC_NODE":316.0309,"ARG_OF_PERICENTER":93.0622,"MEAN_ANOMALY":267.0968,"EPHEMERIS_TYPE":0,"CLASSIFICATION_TYPE":"U","NORAD_CAT_ID":63259,"ELEMENT_SET_NO":999,"REV_AT_EPOCH":5275,"BSTAR":0.0005739,"MEAN_MOTION_DOT":6.499e-5,"MEAN_MOTION_DDOT":0},{"OBJECT_NAME":"LEMUR-2-EMERSONROSE","OBJECT_ID":"2025-052BD","EPOCH":"2026-03-02T15:58:20.786304","MEAN_MOTION":14.98122403,"ECCENTRICITY":0.0003436,"INCLINATION":97.7048,"RA_OF_ASC_NODE":316.3889,"ARG_OF_PERICENTER":66.8705,"MEAN_ANOMALY":293.2879,"EPHEMERIS_TYPE":0,"CLASSIFICATION_TYPE":"U","NORAD_CAT_ID":63261,"ELEMENT_SET_NO":999,"REV_AT_EPOCH":5278,"BSTAR":0.00061572,"MEAN_MOTION_DOT":7.239e-5,"MEAN_MOTION_DDOT":0},{"OBJECT_NAME":"LEMUR-2-MARACHE-FRAN","OBJECT_ID":"2025-052BE","EPOCH":"2026-03-02T16:46:37.479360","MEAN_MOTION":14.98767634,"ECCENTRICITY":0.0002401,"INCLINATION":97.7008,"RA_OF_ASC_NODE":316.6107,"ARG_OF_PERICENTER":41.8962,"MEAN_ANOMALY":318.2444,"EPHEMERIS_TYPE":0,"CLASSIFICATION_TYPE":"U","NORAD_CAT_ID":63262,"ELEMENT_SET_NO":999,"REV_AT_EPOCH":5280,"BSTAR":0.00065141,"MEAN_MOTION_DOT":7.792e-5,"MEAN_MOTION_DDOT":0},{"OBJECT_NAME":"LEMUR-2-THEFALCONER","OBJECT_ID":"2025-052BG","EPOCH":"2026-03-02T15:54:53.774496","MEAN_MOTION":14.96412267,"ECCENTRICITY":0.0002943,"INCLINATION":97.7005,"RA_OF_ASC_NODE":315.7768,"ARG_OF_PERICENTER":38.9181,"MEAN_ANOMALY":321.2252,"EPHEMERIS_TYPE":0,"CLASSIFICATION_TYPE":"U","NORAD_CAT_ID":63264,"ELEMENT_SET_NO":999,"REV_AT_EPOCH":5275,"BSTAR":0.00048954,"MEAN_MOTION_DOT":5.494e-5,"MEAN_MOTION_DDOT":0},{"OBJECT_NAME":"LEMUR-2-UNTITLED-SC","OBJECT_ID":"2025-061A","EPOCH":"2026-03-02T19:32:06.309888","MEAN_MOTION":15.12604667,"ECCENTRICITY":0.0017281,"INCLINATION":97.554,"RA_OF_ASC_NODE":38.0781,"ARG_OF_PERICENTER":272.6207,"MEAN_ANOMALY":87.3046,"EPHEMERIS_TYPE":0,"CLASSIFICATION_TYPE":"U","NORAD_CAT_ID":63351,"ELEMENT_SET_NO":999,"REV_AT_EPOCH":5150,"BSTAR":0.00039061,"MEAN_MOTION_DOT":6.779e-5,"MEAN_MOTION_DDOT":0},{"OBJECT_NAME":"LEMUR-2-ESPERANZA","OBJECT_ID":"2025-061B","EPOCH":"2026-03-02T19:07:49.160928","MEAN_MOTION":15.12683116,"ECCENTRICITY":0.0016755,"INCLINATION":97.555,"RA_OF_ASC_NODE":38.1313,"ARG_OF_PERICENTER":272.0584,"MEAN_ANOMALY":87.8728,"EPHEMERIS_TYPE":0,"CLASSIFICATION_TYPE":"U","NORAD_CAT_ID":63352,"ELEMENT_SET_NO":999,"REV_AT_EPOCH":5150,"BSTAR":0.00034509,"MEAN_MOTION_DOT":5.993e-5,"MEAN_MOTION_DDOT":0},{"OBJECT_NAME":"LEMUR-2-KREMPEL-BRO2","OBJECT_ID":"2025-061C","EPOCH":"2026-03-02T10:58:25.956768","MEAN_MOTION":15.13082298,"ECCENTRICITY":0.00176375,"INCLINATION":97.5596,"RA_OF_ASC_NODE":38.1924,"ARG_OF_PERICENTER":265.258,"MEAN_ANOMALY":94.6637,"EPHEMERIS_TYPE":0,"CLASSIFICATION_TYPE":"U","NORAD_CAT_ID":63353,"ELEMENT_SET_NO":999,"REV_AT_EPOCH":5146,"BSTAR":0.0003378438,"MEAN_MOTION_DOT":5.934e-5,"MEAN_MOTION_DDOT":0},{"OBJECT_NAME":"LEMUR-2-THERMORAPTOR","OBJECT_ID":"2025-061D","EPOCH":"2026-03-02T15:25:22.749024","MEAN_MOTION":15.13160162,"ECCENTRICITY":0.0017377,"INCLINATION":97.56,"RA_OF_ASC_NODE":38.433,"ARG_OF_PERICENTER":263.3386,"MEAN_ANOMALY":96.5867,"EPHEMERIS_TYPE":0,"CLASSIFICATION_TYPE":"U","NORAD_CAT_ID":63354,"ELEMENT_SET_NO":999,"REV_AT_EPOCH":5149,"BSTAR":0.00031512,"MEAN_MOTION_DOT":5.541e-5,"MEAN_MOTION_DDOT":0},{"OBJECT_NAME":"LEMUR-2-NEUROSPICY","OBJECT_ID":"2025-061E","EPOCH":"2026-03-02T19:41:46.241376","MEAN_MOTION":15.13272588,"ECCENTRICITY":0.0015297,"INCLINATION":97.5525,"RA_OF_ASC_NODE":38.3187,"ARG_OF_PERICENTER":266.9771,"MEAN_ANOMALY":92.971,"EPHEMERIS_TYPE":0,"CLASSIFICATION_TYPE":"U","NORAD_CAT_ID":63355,"ELEMENT_SET_NO":999,"REV_AT_EPOCH":5152,"BSTAR":0.0004509,"MEAN_MOTION_DOT":7.979e-5,"MEAN_MOTION_DDOT":0},{"OBJECT_NAME":"LEMUR-2-TILLINFINITY","OBJECT_ID":"2025-061F","EPOCH":"2026-03-02T10:25:15.588480","MEAN_MOTION":15.13844542,"ECCENTRICITY":0.00164957,"INCLINATION":97.5509,"RA_OF_ASC_NODE":38.152,"ARG_OF_PERICENTER":255.3579,"MEAN_ANOMALY":104.5824,"EPHEMERIS_TYPE":0,"CLASSIFICATION_TYPE":"U","NORAD_CAT_ID":63356,"ELEMENT_SET_NO":999,"REV_AT_EPOCH":5148,"BSTAR":0.00033720441,"MEAN_MOTION_DOT":6.048e-5,"MEAN_MOTION_DDOT":0}]
