LEMUR-2-ARIANNA         
1 62699U 25009CU  26061.80688451  .00009372  00000+0  74349-3 0  9993
2 62699  97.7031 144.1734 0004359 159.9777 200.1619 15.00727041 61598
LEMUR-2-ALISIA          
1 62706U 25009DB  26061.73832302  .00009717  00000+0  76520-3 0  9996
2 62706  97.7075 144.7546 0006256 174.9664 185.1624 15.00991746 84185
LEMUR-2-ROUNDTRIPPER    
1 62711U 25009DG  26061.76633822  .00010700  00000+0  82226-3 0  9995
2 62711  97.7310 144.7342 0004572 145.0716 215.0809 15.01906856 61646
LEMUR-2-MYNAMEISJEFF    
1 62712U 25009DH  26061.76485381  .00010591  00000+0  81422-3 0  9996
2 62712  97.7360 145.0505 0003691 173.5484 186.5789 15.01894881 61649
LEMUR-2-LEIA-PHILIP     
1 63246U 25052AN  26061.66166070  .00007510  00000+0  66528-3 0  9994
2 63246  97.6979 315.3727 0002547 198.2817 161.8313 14.96526391 52738
LEMUR-2-LIA-MARTIN      
1 63248U 25052AQ  26061.68385167  .00006358  00000+0  56163-3 0  9991
2 63248  97.7024 315.7505 0002899 161.1851 198.9478 14.96697324 52746
LEMUR-2-DELOITTE-1      
1 63259U 25052BB  26061.65260449  .00006499  00000+0  57390-3 0  9994
2 63259  97.7056 316.0309 0003219  93.0622 267.0968 14.96700379 52753
LEMUR-2-EMERSONROSE     
1 63261U 25052BD  26061.66551836  .00007239  00000+0  61572-3 0  9991
2 63261  97.7048 316.3889 0003436  66.8705 293.2879 14.98122403 52787
LEMUR-2-MARACHE-FRAN    
1 63262U 25052BE  26061.69904490  .00007792  00000+0  65141-3 0  9993
2 63262  97.7008 316.6107 0002401  41.8962 318.2444 14.98767634 52809
LEMUR-2-THEFALCONER     
1 63264U 25052BG  26061.66312239  .00005494  00000+0  48954-3 0  9996
2 63264  97.7005 315.7768 0002943  38.9181 321.2252 14.96412267 52754
LEMUR-2-UNTITLED-SC     
1 63351U 25061A   26061.81396192  .00006779  00000+0  39061-3 0  9996
2 63351  97.5540  38.0781 0017281 272.6207  87.3046 15.12604667 51509
LEMUR-2-ESPERANZA       
1 63352U 25061B   26061.79709677  .00005993  00000+0  34509-3 0  9999
2 63352  97.5550  38.1313 0016755 272.0584  87.8728 15.12683116 51508
LEMUR-2-KREMPEL-BRO2    
1 63353U 25061C   26061.45724487  .00005934  00000+0  33784-3 0  9998
2 63353  97.5596  38.1924 0017637 265.2580  94.6637 15.13082298 51462
LEMUR-2-THERMORAPTOR    
1 63354U 25061D   26061.64262441  .00005541  00000+0  31512-3 0  9998
2 63354  97.5600  38.4330 0017377 263.3386  96.5867 15.13160162 51493
LEMUR-2-NEUROSPICY      
1 63355U 25061E   26061.82067409  .00007979  00000+0  45090-3 0  9999
2 63355  97.5525  38.3187 0015297 266.9771  92.9710 15.13272588 51522
LEMUR-2-TILLINFINITY    
1 63356U 25061F   26061.43420820  .00006048  00000+0  33720-3 0  9990
2 63356  97.5509  38.1520 0016495 255.3579 104.5824 15.13844542 51489
